GSAT0101 (GALILEO-PFM)  
1 37846U 11060A   26113.29606242 -.00000087  00000+0  00000+0 0  9994
2 37846  57.0105 343.2506 0003772  24.6527 335.4053  1.70475605 90182
GSAT0102 (GALILEO-FM2)  
1 37847U 11060B   26112.30979508 -.00000084  00000+0  00000+0 0  9991
2 37847  57.0122 343.2780 0004705   7.1033 153.2259  1.70475846 90171
GSAT0103 (GALILEO-FM3)  
1 38857U 12055A   26115.09622628  .00000047  00000+0  00000+0 0  9993
2 38857  55.7743 103.0007 0005917 295.5036  64.4304  1.70473352 84103
GSAT0201 (GALILEO 5)    
1 40128U 14050A   26114.51834462 -.00000044  00000+0  00000+0 0  9999
2 40128  48.9351 275.6331 1666042 177.2932 183.7366  1.85519930 77324
GSAT0202 (GALILEO 6)    
1 40129U 14050B   26112.61814241 -.00000026  00000+0  00000+0 0  9992
2 40129  48.9541 274.7956 1666851 177.9520 182.8300  1.85520499 79453
GSAT0203 (GALILEO 7)    
1 40544U 15017A   26111.90090206 -.00000083  00000+0  00000+0 0  9998
2 40544  56.8042 343.1309 0002546 315.4442  44.5780  1.70475713 68240
GSAT0204 (GALILEO 8)    
1 40545U 15017B   26111.56996756 -.00000081  00000+0  00000+0 0  9994
2 40545  56.8107 343.1583 0002165 291.9828  68.0380  1.70475494 31287
GSAT0205 (GALILEO 9)    
1 40889U 15045A   26114.43792707 -.00000031  00000+0  00000+0 0  9990
2 40889  54.9621 223.2080 0005015 267.4502  92.4875  1.67410756 66062
GSAT0206 (GALILEO 10)   
1 40890U 15045B   26109.79887237  .00000004  00000+0  00000+0 0  9997
2 40890  54.9633 223.2157 0002311  40.7156 319.2995  1.70473867 66042
GSAT0209 (GALILEO 12)   
1 41174U 15079A   26112.31317230  .00000042  00000+0  00000+0 0  9995
2 41174  55.7933 102.7927 0005667 328.3957  31.5595  1.70474049 63823
GSAT0208 (GALILEO 11)   
1 41175U 15079B   26113.70661183  .00000044  00000+0  00000+0 0  9991
2 41175  55.7940 102.7517 0005073 330.2209  29.7424  1.70473916 64261
GSAT0211 (GALILEO 14)   
1 41549U 16030A   26114.41727357 -.00000030  00000+0  00000+0 0  9995
2 41549  55.1119 223.1731 0002524 359.1559   0.8397  1.70474087 61750
GSAT0210 (GALILEO 13)   
1 41550U 16030B   26111.15506160 -.00000001  00000+0  00000+0 0  9990
2 41550  55.1125 223.2608 0002735 224.3398 135.6408  1.70473979 61693
GSAT0207 (GALILEO 15)   
1 41859U 16069A   26113.19301128  .00000042  00000+0  00000+0 0  9991
2 41859  55.4647 102.6061 0005905 316.7510  43.1935  1.70473937 58467
GSAT0212 (GALILEO 16)   
1 41860U 16069B   26114.21967367  .00000044  00000+0  00000+0 0  9992
2 41860  55.4625 102.5729 0004645 340.5096  19.4658  1.70474155 58730
GSAT0213 (GALILEO 17)   
1 41861U 16069C   26115.17360761  .00000045  00000+0  00000+0 0  9995
2 41861  55.4650 102.5544 0005860 302.5175  57.4206  1.70474515 58618
GSAT0214 (GALILEO 18)   
1 41862U 16069D   26114.14655535  .00000044  00000+0  00000+0 0  9997
2 41862  55.4637 102.5756 0004906 307.1164  52.8319  1.70474224 58721
GSAT0215 (GALILEO 19)   
1 43055U 17079A   26113.46347810 -.00000022  00000+0  00000+0 0  9990
2 43055  55.0907 223.0118 0001428 264.4741  95.5096  1.70474699 52058
GSAT0216 (GALILEO 20)   
1 43056U 17079B   26114.92781412 -.00000034  00000+0  00000+0 0  9996
2 43056  55.0895 222.9715 0002775 284.1808  75.7828  1.70474805 52091
GSAT0217 (GALILEO 21)   
1 43057U 17079C   26110.45596079  .00000003  00000+0  00000+0 0  9999
2 43057  55.0900 223.0923 0002164 310.1804  49.8016  1.70474665 52006
GSAT0218 (GALILEO 22)   
1 43058U 17079D   26111.84918258 -.00000006  00000+0  00000+0 0  9995
2 43058  55.0895 223.0518 0003219 275.9847  83.9821  1.70474594 52056
GSAT0221 (GALILEO 25)   
1 43564U 18060A   26114.09926935 -.00000088  00000+0  00000+0 0  9999
2 43564  57.1855 343.2419 0003847 321.5085  38.5036  1.70475641 48245
GSAT0222 (GALILEO 26)   
1 43565U 18060B   26114.90541516 -.00000089  00000+0  00000+0 0  9999
2 43565  57.1901 343.2234 0002438 288.3021  71.7109  1.70475378 48302
GSAT0219 (GALILEO 23)   
1 43566U 18060C   26113.95323101 -.00000088  00000+0  00000+0 0  9991
2 43566  57.1884 343.2507 0003351 340.2281  19.7984  1.70475588 48268
GSAT0220 (GALILEO 24)   
1 43567U 18060D   26114.76093408 -.00000089  00000+0  00000+0 0  9997
2 43567  57.1842 343.2275 0003644  44.9018 315.1672  1.70475503 48260
GSAT0223 (GALILEO 27)   
1 49809U 21116A   26114.32314513 -.00000088  00000+0  00000+0 0  9992
2 49809  57.1776 343.1299 0000234 233.2925 308.9540  1.70475480 27263
GSAT0224 (GALILEO 28)   
1 49810U 21116B   26114.72218082 -.00000089  00000+0  00000+0 0  9993
2 49810  57.1774 343.1180 0000625  14.3979 165.3634  1.70475626 27297
GSAT0225 (GALILEO 29)   
1 59598U 24079A   26114.44516725  .00000044  00000+0  00000+0 0  9992
2 59598  55.0858 102.5798 0002649 282.4713  80.4437  1.70474282 12407
GSAT0227 (GALILEO 30)   
1 59600U 24079C   26112.27747216  .00000040  00000+0  00000+0 0  9992
2 59600  55.0810 102.6393 0001172  12.2630 347.7292  1.70474343 12415
GSAT0232 (GALILEO 32)   
1 61182U 24167A   26114.26707159 -.00000029  00000+0  00000+0 0  9999
2 61182  55.2013 222.7920 0004832 214.0166 142.5467  1.70474333  9951
GSAT0226 (GALILEO 31)   
1 61183U 24167B   26113.53535582 -.00000022  00000+0  00000+0 0  9991
2 61183  55.2004 222.8193 0001799 190.8528 167.9825  1.70474283  9916
GSAT0233 (GALILEO 33)   
1 67160U 25302A   26114.13321917  .00000042  00000+0  00000+0 0  9997
2 67160  54.3003 103.6689 0002097 244.9590 217.2772  1.70474314  2204
GSAT0234 (GALILEO 34)   
1 67162U 25302C   26114.56077547  .00000043  00000+0  00000+0 0  9994
2 67162  54.3036 103.6556 0003906 293.1512 251.5938  1.70474332  2266
